[{"OBJECT_NAME":"STARLINK-30313","OBJECT_ID":"2023-124P","EPOCH":"2026-03-09T14:36:14.959872","MEAN_MOTION":15.30181238,"ECCENTRICITY":7.19e-5,"INCLINATION":53.1591,"RA_OF_ASC_NODE":207.3601,"ARG_OF_PERICENTER":76.3513,"MEAN_ANOMALY":283.7568,"EPHEMERIS_TYPE":0,"CLASSIFICATION_TYPE":"U","NORAD_CAT_ID":57676,"ELEMENT_SET_NO":999,"REV_AT_EPOCH":14355,"BSTAR":9.3127e-5,"MEAN_MOTION_DOT":2.399e-5,"MEAN_MOTION_DDOT":0},{"OBJECT_NAME":"SIMSAT 1","OBJECT_ID":"2000-026A","EPOCH":"2026-03-09T17:22:54.646176","MEAN_MOTION":15.27666538,"ECCENTRICITY":0.00084816,"INCLINATION":86.3501,"RA_OF_ASC_NODE":180.5413,"ARG_OF_PERICENTER":14.8337,"MEAN_ANOMALY":345.3157,"EPHEMERIS_TYPE":0,"CLASSIFICATION_TYPE":"U","NORAD_CAT_ID":26365,"ELEMENT_SET_NO":999,"REV_AT_EPOCH":42720,"BSTAR":0.00013499313,"MEAN_MOTION_DOT":3.69e-5,"MEAN_MOTION_DDOT":0}]
